{
    "links": {
        "self": "http://www.neowsapp.com/rest/v1/neo/3553155?api_key=iIulBulltgU6a56xZRHN4H3l9WmuAYTsLGpBGhQ2"
    },
    "id": "3553155",
    "neo_reference_id": "3553155",
    "name": "(2010 XJ11)",
    "designation": "2010 XJ11",
    "nasa_jpl_url": "http://ssd.jpl.nasa.gov/sbdb.cgi?sstr=3553155",
    "absolute_magnitude_h": 23.9,
    "estimated_diameter": {
        "kilometers": {
            "estimated_diameter_min": 0.04411182,
            "estimated_diameter_max": 0.0986370281
        },
        "meters": {
            "estimated_diameter_min": 44.1118199997,
            "estimated_diameter_max": 98.6370281305
        },
        "miles": {
            "estimated_diameter_min": 0.0274098057,
            "estimated_diameter_max": 0.0612901888
        },
        "feet": {
            "estimated_diameter_min": 144.7238235278,
            "estimated_diameter_max": 323.6123073718
        }
    },
    "is_potentially_hazardous_asteroid": false,
    "close_approach_data": [
        {
            "close_approach_date": "2010-11-27",
            "close_approach_date_full": "2010-Nov-27 04:29",
            "epoch_date_close_approach": 1290832140000,
            "relative_velocity": {
                "kilometers_per_second": "17.3185070623",
                "kilometers_per_hour": "62346.6254243095",
                "miles_per_hour": "38739.7684476772"
            },
            "miss_distance": {
                "astronomical": "0.0392969167",
                "lunar": "15.2865005963",
                "kilometers": "5878735.035887429",
                "miles": "3652876.5651633602"
            },
            "orbiting_body": "Earth"
        }
    ],
    "orbital_data": {
        "orbit_id": "9",
        "orbit_determination_date": "2017-04-06 08:55:19",
        "first_observation_date": "2010-12-05",
        "last_observation_date": "2010-12-11",
        "data_arc_in_days": 6,
        "observations_used": 39,
        "orbit_uncertainty": "9",
        "minimum_orbit_intersection": ".0098946",
        "jupiter_tisserand_invariant": "3.659",
        "epoch_osculation": "2455538.5",
        "eccentricity": ".6137980509150387",
        "semi_major_axis": "1.927761575802795",
        "inclination": "2.268330524977312",
        "ascending_node_longitude": "265.3330878868607",
        "orbital_period": "977.6387483654813",
        "perihelion_distance": ".7445052779461357",
        "perihelion_argument": "87.26582428565537",
        "aphelion_distance": "3.111017873659454",
        "perihelion_time": "2455483.569563235125",
        "mean_anomaly": "20.22726417955185",
        "mean_motion": ".3682341770944386",
        "equinox": "J2000",
        "orbit_class": {
            "orbit_class_type": "APO",
            "orbit_class_description": "Near-Earth asteroid orbits which cross the Earth’s orbit similar to that of 1862 Apollo",
            "orbit_class_range": "a (semi-major axis) > 1.0 AU; q (perihelion) < 1.017 AU"
        }
    },
    "is_sentry_object": false
}